{"fetched_at":"2026-03-29T16:36:15Z","count":15609,"tles":[{"name":"STARLINK-3087","line1":"1 49175U 21082AX  26087.77673977  .00000119  00000+0  18070-4 0  9995","line2":"2 49175  70.0002 227.3091 0003098 269.6939  90.3865 14.97524539249303","category":"Starlink"}]}